{
  "norad_id": 67431,
  "name": "STARLINK-36443",
  "history": [
    {
      "epoch": "2026-03-28T19:28:06.601728",
      "apogee_km": 483.5195001335451,
      "perigee_km": 482.4761959685511,
      "latitude_deg": -42.99500578980093,
      "longitude_deg": -79.02599807991646,
      "semi_major_axis_km": 6861.134848051048,
      "eccentricity": 7.603e-05,
      "inclination_deg": 42.9985,
      "raan_deg": 129.7428,
      "arg_perigee_deg": 278.0587,
      "mean_anomaly_deg": 82.0178,
      "mean_motion_rev_day": 15.27597115
    }
  ]
}